ONEWEB-0520             
1 54138U 22138AB  24353.09728693 -.00000353  00000+0 -91380-3 0  9994
2 54138  87.9172  53.5416 0001401  93.5921 266.5372 13.19725460104796
ONEWEB-0521             
1 54139U 22138AC  24353.88862412  .00000148  00000+0  33680-3 0  9999
2 54139  87.9170  53.3741 0002067  98.2734 261.8634 13.19729176105740
ONEWEB-0522             
1 54140U 22138AD  24353.86809187  .00000042  00000+0  71596-4 0  9991
2 54140  87.9170  53.3796 0001865 100.1285 260.0058 13.19724436105757
ONEWEB-0523             
1 54141U 22138AE  24353.80888047  .00000118  00000+0  25887-3 0  9993
2 54141  87.9254  22.9470 0002605 110.5269 249.6144 13.20774859108187
ONEWEB-0524             
1 54142U 22138AF  24353.79780717  .00000095  00000+0  20181-3 0  9993
2 54142  87.9253  22.9519 0001794 128.3814 231.7481 13.20772808108180
ONEWEB-0525             
1 54143U 22138AG  24353.88704683  .00000109  00000+0  24080-3 0  9990
2 54143  87.9171  53.3899 0001520  91.3898 268.7409 13.19723608105771
ONEWEB-0526             
1 54144U 22138AH  24353.92022272  .00000052  00000+0  96491-4 0  9996
2 54144  87.9170  53.3751 0001622 100.4611 259.6705 13.19728309105755
ONEWEB-0529             
1 54145U 22138AJ  24353.08938618  .00000066  00000+0  13214-3 0  9990
2 54145  87.9180  53.5691 0001497  95.3116 264.8187 13.19728545104791
